ONEWEB-0056             
1 45159U 20008AE  24169.92670580  .00000142  00000+0  36921-3 0  9993
2 45159  87.8936 181.2658 0002031  95.8211 264.3148 13.10376750212679
ONEWEB-0057             
1 45160U 20008AF  24170.54420381  .00000270  00000+0  73705-3 0  9990
2 45160  87.8941 181.1448 0002140  92.0935 268.0437 13.10377018213419
ONEWEB-0058             
1 45161U 20008AG  24170.53105853 -.00000375  00000+0 -11111-2 0  9994
2 45161  87.8933 181.1827 0002189  88.2932 271.8446 13.10375738213744
ONEWEB-0059             
1 45162U 20008AH  24170.52759674 -.00000515  00000+0 -15104-2 0  9992
2 45162  87.8938 181.1636 0002107  86.4383 273.6985 13.10375384213631
ONEWEB-0062             
1 45163U 20008AJ  24170.47781424  .00000656  00000+0  18432-2 0  9996
2 45163  87.8936 181.1577 0001993  80.0261 280.1092 13.10375944213501
ONEWEB-0065             
1 45164U 20008AK  24169.76899547 -.00000121  00000+0 -38318-3 0  9998
2 45164  87.8944 181.3045 0001969  95.3656 264.7696 13.10376267212352
ONEWEB-0066             
1 45424U 20020A   24170.51254561  .00000528  00000+0  14541-2 0  9997
2 45424  87.8960 166.0642 0002449  91.3483 268.7925 13.11416256207188
ONEWEB-0067             
1 45425U 20020B   24169.93959330 -.00000446  00000+0 -12950-2 0  9991
2 45425  87.8946 166.1388 0002232  94.6584 265.4799 13.11417411207153
